{
  "type": "FeatureCollection",
  "crs": {
    "type": "name",
    "properties": {
      "name": "urn:ogc:def:crs:OGC:1.3:CRS84"
    }
  },
  "metadata": {
    "dataset": "SIH26013 Synthetic Demo Dataset",
    "description": "SYNTHETIC DATA ONLY. Generated for the SIH26013 prototype. Does not represent any real land records, government data, or actual geography.",
    "study_area": "Synthetic Vastu Nagar ward (fictional urban block)",
    "crs": "EPSG:4326 (WGS 84)",
    "seed": 42,
    "generator": "generate_demo_data.py"
  },
  "features": [
    {
      "type": "Feature",
      "geometry": {
        "type": "Polygon",
        "coordinates": [
          [
            [
              79.09002889383294,
              21.14002694933525
            ],
            [
              79.09021188810816,
              21.14002694933525
            ],
            [
              79.09021188810816,
              21.14015271289975
            ],
            [
              79.09002889383294,
              21.14015271289975
            ],
            [
              79.09002889383294,
              21.14002694933525
            ]
          ]
        ]
      },
      "properties": {
        "building_id": "B-101",
        "building_area": 266.0,
        "floors": 3,
        "note": "SYNTHETIC DATA -- demo only"
      }
    },
    {
      "type": "Feature",
      "geometry": {
        "type": "Polygon",
        "coordinates": [
          [
            [
              79.09075123965617,
              21.14002694933525
            ],
            [
              79.09093423393139,
              21.14002694933525
            ],
            [
              79.09093423393139,
              21.14015271289975
            ],
            [
              79.09075123965617,
              21.14015271289975
            ],
            [
              79.09075123965617,
              21.14002694933525
            ]
          ]
        ]
      },
      "properties": {
        "building_id": "B-102",
        "building_area": 266.0,
        "floors": 2,
        "note": "SYNTHETIC DATA -- demo only"
      }
    },
    {
      "type": "Feature",
      "geometry": {
        "type": "Polygon",
        "coordinates": [
          [
            [
              79.09099202159724,
              21.14002694933525
            ],
            [
              79.09117501587247,
              21.14002694933525
            ],
            [
              79.09117501587247,
              21.14015271289975
            ],
            [
              79.09099202159724,
              21.14015271289975
            ],
            [
              79.09099202159724,
              21.14002694933525
            ]
          ]
        ]
      },
      "properties": {
        "building_id": "B-103",
        "building_area": 266.0,
        "floors": 3,
        "note": "SYNTHETIC DATA -- demo only"
      }
    },
    {
      "type": "Feature",
      "geometry": {
        "type": "Polygon",
        "coordinates": [
          [
            [
              79.09123280353833,
              21.14002694933525
            ],
            [
              79.09141579781355,
              21.14002694933525
            ],
            [
              79.09141579781355,
              21.14015271289975
            ],
            [
              79.09123280353833,
              21.14015271289975
            ],
            [
              79.09123280353833,
              21.14002694933525
            ]
          ]
        ]
      },
      "properties": {
        "building_id": "B-104",
        "building_area": 266.0,
        "floors": 1,
        "note": "SYNTHETIC DATA -- demo only"
      }
    },
    {
      "type": "Feature",
      "geometry": {
        "type": "Polygon",
        "coordinates": [
          [
            [
              79.09051045771508,
              21.14020661157025
            ],
            [
              79.09070025935759,
              21.14020661157025
            ],
            [
              79.09070025935759,
              21.140342944113396
            ],
            [
              79.09051045771508,
              21.140342944113396
            ],
            [
              79.09051045771508,
              21.14020661157025
            ]
          ]
        ]
      },
      "properties": {
        "building_id": "B-106",
        "building_area": 299.1,
        "floors": 3,
        "note": "SYNTHETIC DATA -- demo only"
      }
    },
    {
      "type": "Feature",
      "geometry": {
        "type": "Polygon",
        "coordinates": [
          [
            [
              79.09099202159724,
              21.14020661157025
            ],
            [
              79.09117674724797,
              21.14020661157025
            ],
            [
              79.09117674724797,
              21.14032484119535
            ],
            [
              79.09099202159724,
              21.14032484119535
            ],
            [
              79.09099202159724,
              21.14020661157025
            ]
          ]
        ]
      },
      "properties": {
        "building_id": "B-108",
        "building_area": 252.4,
        "floors": 1,
        "note": "SYNTHETIC DATA -- demo only"
      }
    },
    {
      "type": "Feature",
      "geometry": {
        "type": "Polygon",
        "coordinates": [
          [
            [
              79.09026967577401,
              21.140386273805248
            ],
            [
              79.09046450219992,
              21.140386273805248
            ],
            [
              79.09046450219992,
              21.140518228488684
            ],
            [
              79.09026967577401,
              21.140518228488684
            ],
            [
              79.09026967577401,
              21.140386273805248
            ]
          ]
        ]
      },
      "properties": {
        "building_id": "B-111",
        "building_area": 297.1,
        "floors": 3,
        "note": "SYNTHETIC DATA -- demo only"
      }
    },
    {
      "type": "Feature",
      "geometry": {
        "type": "Polygon",
        "coordinates": [
          [
            [
              79.09051045771508,
              21.140386273805248
            ],
            [
              79.09069545686138,
              21.140386273805248
            ],
            [
              79.09069545686138,
              21.140520914606476
            ],
            [
              79.09051045771508,
              21.140520914606476
            ],
            [
              79.09051045771508,
              21.140386273805248
            ]
          ]
        ]
      },
      "properties": {
        "building_id": "B-112",
        "building_area": 287.9,
        "floors": 2,
        "note": "SYNTHETIC DATA -- demo only"
      }
    },
    {
      "type": "Feature",
      "geometry": {
        "type": "Polygon",
        "coordinates": [
          [
            [
              79.09075123965617,
              21.140386273805248
            ],
            [
              79.090942115084,
              21.140386273805248
            ],
            [
              79.090942115084,
              21.1404997976388
            ],
            [
              79.09075123965617,
              21.1404997976388
            ],
            [
              79.09075123965617,
              21.140386273805248
            ]
          ]
        ]
      },
      "properties": {
        "building_id": "B-113",
        "building_area": 250.5,
        "floors": 3,
        "note": "SYNTHETIC DATA -- demo only"
      }
    },
    {
      "type": "Feature",
      "geometry": {
        "type": "Polygon",
        "coordinates": [
          [
            [
              79.09099202159724,
              21.140386273805248
            ],
            [
              79.09116472161182,
              21.140386273805248
            ],
            [
              79.09116472161182,
              21.140501284623504
            ],
            [
              79.09099202159724,
              21.140501284623504
            ],
            [
              79.09099202159724,
              21.140386273805248
            ]
          ]
        ]
      },
      "properties": {
        "building_id": "B-114",
        "building_area": 229.6,
        "floors": 3,
        "note": "SYNTHETIC DATA -- demo only"
      }
    },
    {
      "type": "Feature",
      "geometry": {
        "type": "Polygon",
        "coordinates": [
          [
            [
              79.09002889383294,
              21.140565936040243
            ],
            [
              79.09021609239221,
              21.140565936040243
            ],
            [
              79.09021609239221,
              21.140682837009923
            ],
            [
              79.09002889383294,
              21.140682837009923
            ],
            [
              79.09002889383294,
              21.140565936040243
            ]
          ]
        ]
      },
      "properties": {
        "building_id": "B-116",
        "building_area": 252.9,
        "floors": 3,
        "note": "SYNTHETIC DATA -- demo only"
      }
    },
    {
      "type": "Feature",
      "geometry": {
        "type": "Polygon",
        "coordinates": [
          [
            [
              79.09051045771508,
              21.140565936040243
            ],
            [
              79.09070408491742,
              21.140565936040243
            ],
            [
              79.09070408491742,
              21.140684397630398
            ],
            [
              79.09051045771508,
              21.140684397630398
            ],
            [
              79.09051045771508,
              21.140565936040243
            ]
          ]
        ]
      },
      "properties": {
        "building_id": "B-118",
        "building_area": 265.1,
        "floors": 1,
        "note": "SYNTHETIC DATA -- demo only"
      }
    },
    {
      "type": "Feature",
      "geometry": {
        "type": "Polygon",
        "coordinates": [
          [
            [
              79.09099202159724,
              21.140565936040243
            ],
            [
              79.0911709950799,
              21.140565936040243
            ],
            [
              79.0911709950799,
              21.140702871386715
            ],
            [
              79.09099202159724,
              21.140702871386715
            ],
            [
              79.09099202159724,
              21.140565936040243
            ]
          ]
        ]
      },
      "properties": {
        "building_id": "B-120",
        "building_area": 283.3,
        "floors": 1,
        "note": "SYNTHETIC DATA -- demo only"
      }
    },
    {
      "type": "Feature",
      "geometry": {
        "type": "Polygon",
        "coordinates": [
          [
            [
              79.09123280353833,
              21.140565936040243
            ],
            [
              79.09141816202771,
              21.140565936040243
            ],
            [
              79.09141816202771,
              21.14068530564881
            ],
            [
              79.09123280353833,
              21.14068530564881
            ],
            [
              79.09123280353833,
              21.140565936040243
            ]
          ]
        ]
      },
      "properties": {
        "building_id": "B-121",
        "building_area": 255.7,
        "floors": 2,
        "note": "SYNTHETIC DATA -- demo only"
      }
    },
    {
      "type": "Feature",
      "geometry": {
        "type": "Polygon",
        "coordinates": [
          [
            [
              79.09002889383294,
              21.14074559827524
            ],
            [
              79.09020107490937,
              21.14074559827524
            ],
            [
              79.09020107490937,
              21.140884770147498
            ],
            [
              79.09002889383294,
              21.140884770147498
            ],
            [
              79.09002889383294,
              21.14074559827524
            ]
          ]
        ]
      },
      "properties": {
        "building_id": "B-122",
        "building_area": 277.0,
        "floors": 1,
        "note": "SYNTHETIC DATA -- demo only"
      }
    },
    {
      "type": "Feature",
      "geometry": {
        "type": "Polygon",
        "coordinates": [
          [
            [
              79.09026967577401,
              21.14074559827524
            ],
            [
              79.09043763173881,
              21.14074559827524
            ],
            [
              79.09043763173881,
              21.140874796425845
            ],
            [
              79.09026967577401,
              21.140874796425845
            ],
            [
              79.09026967577401,
              21.14074559827524
            ]
          ]
        ]
      },
      "properties": {
        "building_id": "B-123",
        "building_area": 250.8,
        "floors": 3,
        "note": "SYNTHETIC DATA -- demo only"
      }
    },
    {
      "type": "Feature",
      "geometry": {
        "type": "Polygon",
        "coordinates": [
          [
            [
              79.09075123965617,
              21.14074559827524
            ],
            [
              79.09091541368375,
              21.14074559827524
            ],
            [
              79.09091541368375,
              21.14087731014605
            ],
            [
              79.09075123965617,
              21.14087731014605
            ],
            [
              79.09075123965617,
              21.14074559827524
            ]
          ]
        ]
      },
      "properties": {
        "building_id": "B-125",
        "building_area": 249.9,
        "floors": 3,
        "note": "SYNTHETIC DATA -- demo only"
      }
    }
  ]
}